{
  "type": "Feature",
  "properties": {
    "name": "Sample Route — Central London",
    "description": "A sample GPS route through central London for driver simulation. 15 coordinate pairs covering approximately 3 km."
  },
  "geometry": {
    "type": "LineString",
    "coordinates": [
      [-0.1278, 51.5074],
      [-0.1265, 51.5082],
      [-0.1250, 51.5091],
      [-0.1235, 51.5099],
      [-0.1220, 51.5108],
      [-0.1205, 51.5116],
      [-0.1190, 51.5124],
      [-0.1175, 51.5132],
      [-0.1160, 51.5140],
      [-0.1145, 51.5148],
      [-0.1130, 51.5155],
      [-0.1115, 51.5162],
      [-0.1100, 51.5169],
      [-0.1085, 51.5175],
      [-0.1070, 51.5181]
    ]
  }
}
